[{"OBJECT_NAME":"STARLINK-11421 [DTC]","OBJECT_ID":"2024-209G","EPOCH":"2026-03-09T04:01:59.926080","MEAN_MOTION":15.69755182,"ECCENTRICITY":0.0001812,"INCLINATION":53.1573,"RA_OF_ASC_NODE":14.0042,"ARG_OF_PERICENTER":125.4243,"MEAN_ANOMALY":234.6944,"EPHEMERIS_TYPE":0,"CLASSIFICATION_TYPE":"U","NORAD_CAT_ID":61945,"ELEMENT_SET_NO":999,"REV_AT_EPOCH":7659,"BSTAR":0.0012371154,"MEAN_MOTION_DOT":0.00152356,"MEAN_MOTION_DDOT":0},{"OBJECT_NAME":"FLOCK 4BE-16","OBJECT_ID":"2024-149R","EPOCH":"2026-03-09T18:09:47.863872","MEAN_MOTION":15.69331853,"ECCENTRICITY":0.0006629,"INCLINATION":97.3709,"RA_OF_ASC_NODE":154.3606,"ARG_OF_PERICENTER":231.2674,"MEAN_ANOMALY":128.7996,"EPHEMERIS_TYPE":0,"CLASSIFICATION_TYPE":"U","NORAD_CAT_ID":60483,"ELEMENT_SET_NO":999,"REV_AT_EPOCH":8717,"BSTAR":0.0016709449,"MEAN_MOTION_DOT":0.00199478,"MEAN_MOTION_DDOT":0}]
